NORAD_CAT_ID,OBJECT_NAME,OBJECT_TYPE,EPOCH,MEAN_MOTION,ECCENTRICITY,INCLINATION,RA_OF_ASC_NODE,ARG_OF_PERICENTER,MEAN_ANOMALY,BSTAR,MEAN_MOTION_DOT,MEAN_MOTION_DDOT,TLE_LINE0,TLE_LINE1,TLE_LINE2,SEMIMAJOR_AXIS,PERIOD,APOGEE,PERIGEE,DECAYED
54171.0,STARLINK-5229,PAYLOAD,2024-04-22 06:31:04,15.08891824,0.000166,53.2164,210.4206,58.0098,302.1055,0.0023848,0.00037925,0.0,0 STARLINK-5229,1 54171U 22141Q   24113.27158249  .00037925  00000-0  23848-2 0  9990,2 54171  53.2164 210.4206 0001660  58.0098 302.1055 15.08891824 82168,6917.722,95.434,540.735,538.439,0.0
54171.0,STARLINK-5229,PAYLOAD,2024-04-22 12:52:36,15.08915138,0.0001678,53.2168,209.2317,57.4,302.7154,0.0024522,0.00039036,0.0,0 STARLINK-5229,1 54171U 22141Q   24113.53653055  .00039036  00000-0  24522-2 0  9999,2 54171  53.2168 209.2317 0001678  57.4000 302.7154 15.08915138 82202,6917.651,95.433,540.677,538.355,0.0
54171.0,STARLINK-5229,PAYLOAD,2024-04-23 12:43:22,15.08853922,0.0001365,53.2171,204.7684,82.4905,277.6242,0.0017148,0.00027119,0.0,0 STARLINK-5229,1 54171U 22141Q   24114.53011797  .00027119  00000-0  17148-2 0  9996,2 54171  53.2171 204.7684 0001365  82.4905 277.6242 15.08853922 82354,6917.838,95.437,540.647,538.759,0.0
54171.0,STARLINK-5229,PAYLOAD,2024-04-24 12:34:10,15.08819013,0.0001566,53.2168,200.3098,114.0904,246.0252,0.0012658,0.00019903,0.0,0 STARLINK-5229,1 54171U 22141Q   24115.52373265  .00019903  00000-0  12658-2 0  9990,2 54171  53.2168 200.3098 0001566 114.0904 246.0252 15.08819013 82506,6917.945,95.439,540.893,538.726,0.0
54171.0,STARLINK-5229,PAYLOAD,2024-04-25 10:49:34,15.08840391,0.0001539,53.216,196.1443,118.42,241.6947,0.00060599,9.37e-05,0.0,0 STARLINK-5229,1 54171U 22141Q   24116.45109643  .00009370  00000-0  60599-3 0  9995,2 54171  53.2160 196.1443 0001539 118.4200 241.6947 15.08840391 82641,6917.879,95.438,540.809,538.68,0.0
54171.0,STARLINK-5229,PAYLOAD,2024-04-26 12:15:44,15.08858008,0.0001328,53.2147,191.3886,99.6826,260.4317,0.00060097,9.294e-05,0.0,0 STARLINK-5229,1 54171U 22141Q   24117.51093113  .00009294  00000-0  60097-3 0  9995,2 54171  53.2147 191.3886 0001328  99.6826 260.4317 15.08858008 82806,6917.825,95.436,540.609,538.772,0.0
54171.0,STARLINK-5229,PAYLOAD,2024-04-26 15:26:30,15.08864232,0.0001256,53.2141,190.7923,93.0722,267.0414,0.00073091,0.00011371,0.0,0 STARLINK-5229,1 54171U 22141Q   24117.64340849  .00011371  00000-0  73091-3 0  9997,2 54171  53.2141 190.7923 0001256  93.0722 267.0414 15.08864232 82827,6917.806,95.436,540.54,538.802,0.0
54171.0,STARLINK-5229,PAYLOAD,2024-04-27 12:06:31,15.08849887,0.0001742,53.2159,186.9296,87.1253,272.9939,0.0003106,4.66e-05,0.0,0 STARLINK-5229,1 54171U 22141Q   24118.50452792  .00004660  00000-0  31060-3 0  9997,2 54171  53.2159 186.9296 0001742  87.1253 272.9939 15.08849887 82959,6917.85,95.437,540.92,538.51,0.0
54171.0,STARLINK-5229,PAYLOAD,2024-04-27 21:38:50,15.08840145,0.0001298,53.2152,185.1435,85.5422,274.5718,-2.4751e-05,-6.82e-06,0.0,0 STARLINK-5229,1 54171U 22141Q   24118.90196884 -.00000682  00000-0 -24751-4 0  9990,2 54171  53.2152 185.1435 0001298  85.5422 274.5718 15.08840145 83013,6917.88,95.438,540.643,538.847,0.0
54171.0,STARLINK-5229,PAYLOAD,2024-04-28 04:00:23,15.08821339,0.0001428,53.2136,183.9543,87.5199,272.5957,-0.00044842,-7.414e-05,0.0,0 STARLINK-5229,1 54171U 22141Q   24119.16693538 -.00007414  00000-0 -44842-3 0  9999,2 54171  53.2136 183.9543 0001428  87.5199 272.5957 15.08821339 83050,6917.937,95.439,540.79,538.815,0.0
54171.0,STARLINK-5229,PAYLOAD,2024-04-28 11:57:19,15.08823673,0.0001351,53.2138,182.4664,89.0821,271.0326,-0.00019732,-3.425e-05,0.0,0 STARLINK-5229,1 54171U 22141Q   24119.49814020 -.00003425  00000-0 -19732-3 0  9994,2 54171  53.2138 182.4664 0001351  89.0821 271.0326 15.08823673 83107,6917.93,95.439,540.73,538.861,0.0
54171.0,STARLINK-5229,PAYLOAD,2024-04-28 21:29:38,15.08828019,0.0001372,53.214,180.6831,90.6666,269.4483,0.00021561,3.144e-05,0.0,0 STARLINK-5229,1 54171U 22141Q   24119.89558371  .00003144  00000-0  21561-3 0  9991,2 54171  53.2140 180.6831 0001372  90.6666 269.4483 15.08828019 83164,6917.917,95.438,540.731,538.833,0.0
54171.0,STARLINK-5229,PAYLOAD,2024-04-29 03:51:11,15.08830657,0.0001435,53.2142,179.4941,85.4375,274.6781,0.00041094,6.257e-05,0.0,0 STARLINK-5229,1 54171U 22141Q   24120.16054638  .00006257  00000-0  41094-3 0  9991,2 54171  53.2142 179.4941 0001435  85.4375 274.6781 15.08830657 83208,6917.909,95.438,540.767,538.781,0.0
54171.0,STARLINK-5229,PAYLOAD,2024-04-29 10:12:43,15.08842021,0.0001401,53.2138,178.3042,85.9424,274.1728,0.00084597,0.00013202,0.0,0 STARLINK-5229,1 54171U 22141Q   24120.42550694  .00013202  00000-0  84597-3 0  9996,2 54171  53.2138 178.3042 0001401  85.9424 274.1728 15.08842021 83244,6917.874,95.437,540.708,538.77,0.0
54171.0,STARLINK-5229,PAYLOAD,2024-04-29 21:20:25,15.08852422,0.000141,53.2138,176.2224,85.3072,274.8081,0.00073746,0.00011472,0.0,0 STARLINK-5229,1 54171U 22141Q   24120.88918414  .00011472  00000-0  73746-3 0  9995,2 54171  53.2138 176.2224 0001410  85.3072 274.8081 15.08852422 83319,6917.842,95.437,540.683,538.732,0.0
54171.0,STARLINK-5229,PAYLOAD,2024-04-30 10:03:30,15.08858293,0.0001436,53.2146,173.8433,85.5493,274.5663,0.00055356,8.537e-05,0.0,0 STARLINK-5229,1 54171U 22141Q   24121.41909926  .00008537  00000-0  55356-3 0  9998,2 54171  53.2146 173.8433 0001436  85.5493 274.5663 15.08858293 83393,6917.824,95.436,540.683,538.696,0.0
54171.0,STARLINK-5229,PAYLOAD,2024-05-01 09:54:16,15.08850376,0.0001513,53.2139,169.3835,80.3864,279.7299,0.00025155,3.719e-05,0.0,0 STARLINK-5229,1 54171U 22141Q   24122.41269553  .00003719  00000-0  25155-3 0  9995,2 54171  53.2139 169.3835 0001513  80.3864 279.7299 15.08850376 83545,6917.849,95.437,540.76,538.667,0.0
54171.0,STARLINK-5229,PAYLOAD,2024-05-02 03:23:31,15.08843043,0.0001597,53.2151,166.112,80.4793,279.6379,1.272e-05,-8.6e-07,0.0,0 STARLINK-5229,1 54171U 22141Q   24123.14133587 -.00000086  00000-0  12720-4 0  9993,2 54171  53.2151 166.1120 0001597  80.4793 279.6379 15.08843043 83658,6917.871,95.437,540.841,538.631,0.0
54171.0,STARLINK-5229,PAYLOAD,2024-05-02 09:45:03,15.08846122,0.0001285,53.2151,164.9207,84.6643,275.4496,5.1349e-05,5.3e-06,0.0,0 STARLINK-5229,1 54171U 22141Q   24123.40629592  .00000530  00000-0  51349-4 0  9991,2 54171  53.2151 164.9207 0001285  84.6643 275.4496 15.08846122 83693,6917.862,95.437,540.616,538.838,0.0
54171.0,STARLINK-5229,PAYLOAD,2024-05-03 09:35:50,15.08855106,0.0001317,53.2152,160.4625,87.6187,272.4956,-1.3155e-06,-3.09e-06,0.0,0 STARLINK-5229,1 54171U 22141Q   24124.39988946 -.00000309  00000-0 -13155-5 0  9991,2 54171  53.2152 160.4625 0001317  87.6187 272.4956 15.08855106 83848,6917.834,95.437,540.61,538.788,0.0
54171.0,STARLINK-5229,PAYLOAD,2024-05-03 19:08:09,15.08838343,0.0001154,53.2133,158.6759,76.2574,283.8546,1.6352e-05,-2.8e-07,0.0,0 STARLINK-5229,1 54171U 22141Q   24124.79733470 -.00000028  00000-0  16352-4 0  9993,2 54171  53.2133 158.6759 0001154  76.2574 283.8546 15.08838343 83909,6917.885,95.438,540.549,538.952,0.0
54171.0,STARLINK-5229,PAYLOAD,2024-05-04 12:37:26,15.08822827,0.0001601,53.2169,155.4056,91.4383,268.6793,-4.6056e-05,-1.021e-05,0.0,0 STARLINK-5229,1 54171U 22141Q   24125.52599696 -.00001021  00000-0 -46056-4 0  9994,2 54171  53.2169 155.4056 0001601  91.4383 268.6793 15.08822827 84015,6917.933,95.439,540.905,538.69,0.0
54171.0,STARLINK-5229,PAYLOAD,2024-05-05 10:52:49,15.08834941,0.0001392,53.2155,151.2447,95.5554,264.5597,-6.9215e-06,-3.98e-06,0.0,0 STARLINK-5229,1 54171U 22141Q   24126.45335371 -.00000398  00000-0 -69215-5 0  9994,2 54171  53.2155 151.2447 0001392  95.5554 264.5597 15.08834941 84152,6917.896,95.438,540.724,538.798,0.0
54171.0,STARLINK-5229,PAYLOAD,2024-05-05 18:49:45,15.088396,0.0001334,53.2157,149.7558,93.0919,267.0226,-3.3027e-06,-3.4e-06,0.0,0 STARLINK-5229,1 54171U 22141Q   24126.78455171 -.00000340  00000-0 -33027-5 0  9990,2 54171  53.2157 149.7558 0001334  93.0919 267.0226 15.08839600 84203,6917.882,95.438,540.669,538.824,0.0
54171.0,STARLINK-5229,PAYLOAD,2024-05-06 10:43:36,15.08838197,0.0001322,53.2157,146.7818,97.3145,262.7998,0.00024477,3.61e-05,0.0,0 STARLINK-5229,1 54171U 22141Q   24127.44695353  .00003610  00000-0  24477-3 0  9990,2 54171  53.2157 146.7818 0001322  97.3145 262.7998 15.08838197 84303,6917.886,95.438,540.665,538.836,0.0
54171.0,STARLINK-5229,PAYLOAD,2024-05-06 18:40:32,15.08844826,0.0001328,53.2158,145.2959,95.5096,264.6047,0.00026744,3.972e-05,0.0,0 STARLINK-5229,1 54171U 22141Q   24127.77815056  .00003972  00000-0  26744-3 0  9990,2 54171  53.2158 145.2959 0001328  95.5096 264.6047 15.08844826 84352,6917.866,95.437,540.649,538.812,0.0
54171.0,STARLINK-5229,PAYLOAD,2024-05-07 10:34:23,15.08862527,0.0001327,53.2144,142.3214,95.3326,264.7818,0.00050026,7.688e-05,0.0,0 STARLINK-5229,1 54171U 22141Q   24128.44054587  .00007688  00000-0  50026-3 0  9997,2 54171  53.2144 142.3214 0001327  95.3326 264.7818 15.08862527 84458,6917.812,95.436,540.595,538.759,0.0
54171.0,STARLINK-5229,PAYLOAD,2024-05-07 21:42:05,15.08853716,0.0001309,53.2144,140.2394,95.6705,264.4437,0.00022046,3.224e-05,0.0,0 STARLINK-5229,1 54171U 22141Q   24128.90422539  .00003224  00000-0  22046-3 0  9997,2 54171  53.2144 140.2394 0001309  95.6705 264.4437 15.08853716 84520,6917.838,95.437,540.609,538.798,0.0
54171.0,STARLINK-5229,PAYLOAD,2024-05-08 10:25:09,15.08852401,0.0001277,53.215,137.8603,90.5629,269.551,0.00012403,1.687e-05,0.0,0 STARLINK-5229,1 54171U 22141Q   24129.43414331  .00001687  00000-0  12403-3 0  9994,2 54171  53.2150 137.8603 0001277  90.5629 269.5510 15.08852401 84602,6917.842,95.437,540.591,538.824,0.0
54171.0,STARLINK-5229,PAYLOAD,2024-05-09 03:54:24,15.08846806,0.0001387,53.2145,134.5874,93.9716,266.1434,-3.1773e-05,-7.94e-06,0.0,0 STARLINK-5229,1 54171U 22141Q   24130.16278203 -.00000794  00000-0 -31773-4 0  9994,2 54171  53.2145 134.5874 0001387  93.9716 266.1434 15.08846806 84718,6917.86,95.437,540.684,538.765,0.0
